NORAD_CAT_ID,OBJECT_NAME,OBJECT_TYPE,EPOCH,MEAN_MOTION,ECCENTRICITY,INCLINATION,RA_OF_ASC_NODE,ARG_OF_PERICENTER,MEAN_ANOMALY,BSTAR,MEAN_MOTION_DOT,MEAN_MOTION_DDOT,TLE_LINE0,TLE_LINE1,TLE_LINE2,SEMIMAJOR_AXIS,PERIOD,APOGEE,PERIGEE,DECAYED
54171.0,STARLINK-5229,PAYLOAD,2023-10-04 13:32:21,15.08851421,0.0001451,53.2195,31.4287,96.3255,263.7903,6.5053e-05,7.48e-06,0.0,0 STARLINK-5229,1 54171U 22141Q   23277.56414084  .00000748  00000-0  65053-4 0  9993,2 54171  53.2195  31.4287 0001451  96.3255 263.7903 15.08851421 51866,6917.845,95.437,540.714,538.707,0.0
54171.0,STARLINK-5229,PAYLOAD,2023-10-04 15:07:44,15.08854909,0.0001457,53.2182,31.131,68.5921,291.5226,0.00010183,1.334e-05,0.0,0 STARLINK-5229,1 54171U 22141Q   23277.63037995  .00001334  00000-0  10183-3 0  9998,2 54171  53.2182  31.1310 0001457  68.5921 291.5226 15.08854909 51875,6917.835,95.437,540.708,538.692,0.0
54171.0,STARLINK-5229,PAYLOAD,2023-10-05 13:23:09,15.08843344,0.0001682,53.2185,26.9674,68.9803,291.1369,-1.4587e-06,-3.11e-06,0.0,0 STARLINK-5229,1 54171U 22141Q   23278.55774600 -.00000311  00000-0 -14587-5 0  9991,2 54171  53.2185  26.9674 0001682  68.9803 291.1369 15.08843344 52018,6917.87,95.437,540.899,538.572,0.0
54171.0,STARLINK-5229,PAYLOAD,2023-10-05 14:58:32,15.08844734,0.0001772,53.2189,26.6707,67.0717,293.0462,0.00011357,1.52e-05,0.0,0 STARLINK-5229,1 54171U 22141Q   23278.62398518  .00001520  00000-0  11357-3 0  9990,2 54171  53.2189  26.6707 0001772  67.0717 293.0462 15.08844734 52020,6917.866,95.437,540.957,538.505,0.0
54171.0,STARLINK-5229,PAYLOAD,2023-10-06 06:52:24,15.08833291,0.0001382,53.2189,23.6973,88.4724,271.6427,-6.5766e-05,-1.334e-05,0.0,0 STARLINK-5229,1 54171U 22141Q   23279.28638980 -.00001334  00000-0 -65766-4 0  9992,2 54171  53.2189  23.6973 0001382  88.4724 271.6427 15.08833291 52124,6917.901,95.438,540.722,538.81,0.0
54171.0,STARLINK-5229,PAYLOAD,2023-10-06 13:13:56,15.08838438,0.000146,53.2183,22.5081,88.88,271.2359,0.00010037,1.31e-05,0.0,0 STARLINK-5229,1 54171U 22141Q   23279.55134950  .00001310  00000-0  10037-3 0  9992,2 54171  53.2183  22.5081 0001460  88.8800 271.2359 15.08838438 52164,6917.885,95.438,540.76,538.74,0.0
54171.0,STARLINK-5229,PAYLOAD,2023-10-06 14:49:19,15.08843234,0.0001433,53.2184,22.2106,86.1963,273.9193,0.00021716,3.17e-05,0.0,0 STARLINK-5229,1 54171U 22141Q   23279.61758843  .00003170  00000-0  21716-3 0  9994,2 54171  53.2184  22.2106 0001433  86.1963 273.9193 15.08843234 52177,6917.871,95.437,540.727,538.744,0.0
54171.0,STARLINK-5229,PAYLOAD,2023-10-07 00:21:38,15.08837173,0.0001401,53.2189,20.4261,87.9686,272.1467,0.00025159,3.718e-05,0.0,0 STARLINK-5229,1 54171U 22141Q   23280.01503342  .00003718  00000-0  25159-3 0  9995,2 54171  53.2189  20.4261 0001401  87.9686 272.1467 15.08837173 52237,6917.889,95.438,540.723,538.785,0.0
54171.0,STARLINK-5229,PAYLOAD,2023-10-07 13:04:43,15.08848831,0.0001552,53.2182,18.0496,81.9916,278.1252,0.00030763,4.612e-05,0.0,0 STARLINK-5229,1 54171U 22141Q   23280.54495011  .00004612  00000-0  30763-3 0  9997,2 54171  53.2182  18.0496 0001552  81.9916 278.1252 15.08848831 52310,6917.853,95.437,540.792,538.645,0.0
54171.0,STARLINK-5229,PAYLOAD,2023-10-08 09:44:44,15.08841348,0.000163,53.2181,14.1836,96.5326,263.5852,0.00013459,1.855e-05,0.0,0 STARLINK-5229,1 54171U 22141Q   23281.40607285  .00001855  00000-0  13459-3 0  9990,2 54171  53.2181  14.1836 0001630  96.5326 263.5852 15.08841348 52442,6917.876,95.437,540.869,538.614,0.0
54171.0,STARLINK-5229,PAYLOAD,2023-10-08 12:55:30,15.08845492,0.0001502,53.2195,13.5891,97.6687,262.4476,0.00020647,3e-05,0.0,0 STARLINK-5229,1 54171U 22141Q   23281.53855193  .00003000  00000-0  20647-3 0  9998,2 54171  53.2195  13.5891 0001502  97.6687 262.4476 15.08845492 52467,6917.864,95.437,540.768,538.69,0.0
54171.0,STARLINK-5229,PAYLOAD,2023-10-09 12:46:17,15.08846956,0.0001408,53.2187,9.1248,97.3083,262.8069,0.0001484,2.075e-05,0.0,0 STARLINK-5229,1 54171U 22141Q   23282.53215078  .00002075  00000-0  14840-3 0  9990,2 54171  53.2187   9.1248 0001408  97.3083 262.8069 15.08846956 52612,6917.859,95.437,540.698,538.75,0.0
54171.0,STARLINK-5229,PAYLOAD,2023-10-10 11:01:40,15.08878768,0.0001809,53.2189,4.9641,106.77,253.3491,0.0008313,0.00012981,0.0,0 STARLINK-5229,1 54171U 22141Q   23283.45949897  .00012981  00000-0  83130-3 0  9990,2 54171  53.2189   4.9641 0001809 106.7700 253.3491 15.08878768 52755,6917.762,95.435,540.878,538.375,0.0
54171.0,STARLINK-5229,PAYLOAD,2023-10-10 12:37:03,15.08894711,0.0001346,53.219,4.6678,96.5107,263.6038,0.0010811,0.00016985,0.0,0 STARLINK-5229,1 54171U 22141Q   23283.52573211  .00016985  00000-0  10811-2 0  9994,2 54171  53.2190   4.6678 0001346  96.5107 263.6038 15.08894711 52765,6917.713,95.434,540.509,538.647,0.0
54171.0,STARLINK-5229,PAYLOAD,2023-10-11 10:52:29,15.08829703,0.0001654,53.219,0.5041,96.3105,263.8076,-0.00014554,-2.603e-05,0.0,0 STARLINK-5229,1 54171U 22141Q   23284.45311817 -.00002603  00000-0 -14554-3 0  9992,2 54171  53.2190   0.5041 0001654  96.3105 263.8076 15.08829703 52901,6917.912,95.438,540.921,538.633,0.0
54171.0,STARLINK-5229,PAYLOAD,2023-10-11 12:27:52,15.08834194,0.0001457,53.2188,0.2089,91.2353,268.8806,-9.0729e-05,-1.731e-05,0.0,0 STARLINK-5229,1 54171U 22141Q   23284.51935649 -.00001731  00000-0 -90729-4 0  9994,2 54171  53.2188   0.2089 0001457  91.2353 268.8806 15.08834194 52914,6917.898,95.438,540.771,538.755,0.0
54171.0,STARLINK-5229,PAYLOAD,2023-10-11 22:00:11,15.08835794,0.000148,53.2188,358.4246,90.5679,269.5483,-5.5874e-05,-1.177e-05,0.0,0 STARLINK-5229,1 54171U 22141Q   23284.91679719 -.00001177  00000-0 -55874-4 0  9997,2 54171  53.2188 358.4246 0001480  90.5679 269.5483 15.08835794 52978,6917.893,95.438,540.782,538.734,0.0
54171.0,STARLINK-5229,PAYLOAD,2023-10-12 12:18:39,15.0885025,0.0001652,53.2193,355.7496,93.6452,266.4729,0.0002294,3.366e-05,0.0,0 STARLINK-5229,1 54171U 22141Q   23285.51295383  .00003366  00000-0  22940-3 0  9992,2 54171  53.2193 355.7496 0001652  93.6452 266.4729 15.08850250 53069,6917.849,95.437,540.857,538.571,0.0
54171.0,STARLINK-5229,PAYLOAD,2023-10-13 04:12:31,15.08841707,0.0001648,53.2191,352.7767,87.0292,273.0889,0.00030075,4.502e-05,0.0,0 STARLINK-5229,1 54171U 22141Q   23286.17536122  .00004502  00000-0  30075-3 0  9995,2 54171  53.2191 352.7767 0001648  87.0292 273.0889 15.08841707 53168,6917.875,95.437,540.88,538.6,0.0
54171.0,STARLINK-5229,PAYLOAD,2023-10-13 12:09:26,15.08851855,0.0001587,53.218,351.2882,90.7421,269.3753,0.000542,8.351e-05,0.0,0 STARLINK-5229,1 54171U 22141Q   23286.50655875  .00008351  00000-0  54200-3 0  9991,2 54171  53.2180 351.2882 0001587  90.7421 269.3753 15.08851855 53214,6917.844,95.437,540.807,538.611,0.0
54171.0,STARLINK-5229,PAYLOAD,2023-10-13 21:41:45,15.0885129,0.0001517,53.2181,349.5035,82.439,277.6774,0.00067444,0.00010465,0.0,0 STARLINK-5229,1 54171U 22141Q   23286.90399730  .00010465  00000-0  67444-3 0  9993,2 54171  53.2181 349.5035 0001517  82.4390 277.6774 15.08851290 53275,6917.846,95.437,540.76,538.661,0.0
54171.0,STARLINK-5229,PAYLOAD,2023-10-14 10:24:50,15.08855737,0.0001608,53.2179,347.1241,92.4467,267.6709,0.00051365,7.9e-05,0.0,0 STARLINK-5229,1 54171U 22141Q   23287.43391390  .00007900  00000-0  51365-3 0  9991,2 54171  53.2179 347.1241 0001608  92.4467 267.6709 15.08855737 53358,6917.832,95.437,540.81,538.585,0.0
54171.0,STARLINK-5229,PAYLOAD,2023-10-14 21:32:32,15.08843341,0.0001684,53.2189,345.0429,89.1066,271.0119,0.00020723,3.012e-05,0.0,0 STARLINK-5229,1 54171U 22141Q   23287.89759658  .00003012  00000-0  20723-3 0  9990,2 54171  53.2189 345.0429 0001684  89.1066 271.0119 15.08843341 53426,6917.87,95.437,540.9,538.57,0.0
54171.0,STARLINK-5229,PAYLOAD,2023-10-14 23:07:55,15.08846143,0.0001614,53.218,344.7457,91.6621,268.4556,0.00018875,2.718e-05,0.0,0 STARLINK-5229,1 54171U 22141Q   23287.96383590  .00002718  00000-0  18875-3 0  9993,2 54171  53.2180 344.7457 0001614  91.6621 268.4556 15.08846143 53431,6917.862,95.437,540.843,538.61,0.0
54171.0,STARLINK-5229,PAYLOAD,2023-10-15 10:15:38,15.0882844,0.0001612,53.218,342.6636,99.2806,260.8369,-6.7086e-05,-1.355e-05,0.0,0 STARLINK-5229,1 54171U 22141Q   23288.42752366 -.00001355  00000-0 -67086-4 0  9993,2 54171  53.2180 342.6636 0001612  99.2806 260.8369 15.08828440 53500,6917.916,95.438,540.896,538.666,0.0
54171.0,STARLINK-5229,PAYLOAD,2023-10-16 06:55:39,15.08848511,0.0001485,53.2169,338.7983,96.0559,264.0602,0.0010826,0.00016988,0.0,0 STARLINK-5229,1 54171U 22141Q   23289.28864772  .00016988  00000-0  10826-2 0  9997,2 54171  53.2169 338.7983 0001485  96.0559 264.0602 15.08848511 53637,6917.854,95.437,540.747,538.692,0.0
54171.0,STARLINK-5229,PAYLOAD,2023-10-16 10:06:25,15.08860574,0.0001496,53.2175,338.2046,91.3687,268.7476,0.00142,0.00022396,0.0,0 STARLINK-5229,1 54171U 22141Q   23289.42112607  .00022396  00000-0  14200-2 0  9996,2 54171  53.2175 338.2046 0001496  91.3687 268.7476 15.08860574 53656,6917.818,95.436,540.717,538.648,0.0
54171.0,STARLINK-5229,PAYLOAD,2023-10-17 09:57:11,15.08859209,0.0001403,53.2176,333.7441,96.9666,263.1485,0.00073567,0.00011446,0.0,0 STARLINK-5229,1 54171U 22141Q   23290.41472158  .00011446  00000-0  73567-3 0  9993,2 54171  53.2176 333.7441 0001403  96.9666 263.1485 15.08859209 53801,6917.822,95.436,540.657,538.716,0.0
54171.0,STARLINK-5229,PAYLOAD,2023-10-17 13:07:58,15.08864592,0.0001384,53.2172,333.1484,97.366,262.7489,0.00096524,0.00015117,0.0,0 STARLINK-5229,1 54171U 22141Q   23290.54719998  .00015117  00000-0  96524-3 0  9990,2 54171  53.2172 333.1484 0001384  97.3660 262.7489 15.08864592 53827,6917.805,95.436,540.628,538.713,0.0
54171.0,STARLINK-5229,PAYLOAD,2023-10-17 19:29:30,15.08845917,0.0002294,53.2171,331.9598,99.6727,260.4524,0.00044873,6.862e-05,0.0,0 STARLINK-5229,1 54171U 22141Q   23290.81216307  .00006862  00000-0  44873-3 0  9993,2 54171  53.2171 331.9598 0002294  99.6727 260.4524 15.08845917 53867,6917.862,95.437,541.314,538.14,0.0
